[
 {
  "CircleName": "Andhra Pradesh Circle",
  "RegionName": "Kurnool Region",
  "DivisionName": "Anantapur Division",
  "OfficeName": "A Narayanapuram B.O",
  "Pincode": "515004",
  "OfficeType": "BO",
  "Delivery": "Delivery",
  "District": "ANANTHAPUR",
  "StateName": "Andhra Pradesh"
 },
 {
  "CircleName": "Andhra Pradesh Circle",
  "RegionName": "Kurnool Region",
  "DivisionName": "Anantapur Division",
  "OfficeName": "Akuledu B.O",
  "Pincode": "515731",
  "OfficeType": "BO",
  "Delivery": "Delivery",
  "District": "ANANTHAPUR",
  "StateName": "Andhra Pradesh"
 },
 {
  "CircleName": "Andhra Pradesh Circle",
  "RegionName": "Kurnool Region",
  "DivisionName": "Anantapur Division",
  "OfficeName": "Alamuru B.O",
  "Pincode": "515002",
  "OfficeType": "BO",
  "Delivery": "Delivery",
  "District": "ANANTHAPUR",
  "StateName": "Andhra Pradesh"
 },
 {
  "CircleName": "Andhra Pradesh Circle",
  "RegionName": "Kurnool Region",
  "DivisionName": "Anantapur Division",
  "OfficeName": "Allapuram B.O",
  "Pincode": "515766",
  "OfficeType": "BO",
  "Delivery": "Delivery",
  "District": "ANANTHAPUR",
  "StateName": "Andhra Pradesh"
 },
 {
  "CircleName": "Andhra Pradesh Circle",
  "RegionName": "Kurnool Region",
  "DivisionName": "Anantapur Division",
  "OfficeName": "Aluru B.O",
  "Pincode": "515415",
  "OfficeType": "BO",
  "Delivery": "Delivery",
  "District": "ANANTHAPUR",
  "StateName": "Andhra Pradesh"
 },
 {
  "CircleName": "Andhra Pradesh Circle",
  "RegionName": "Kurnool Region",
  "DivisionName": "Anantapur Division",
  "OfficeName": "Amidyaya S.O",
  "Pincode": "515822",
  "OfficeType": "SO",
  "Delivery": "Delivery",
  "District": "ANANTHAPUR",
  "StateName": "Andhra Pradesh"
 },
 {
  "CircleName": "Andhra Pradesh Circle",
  "RegionName": "Kurnool Region",
  "DivisionName": "Anantapur Division",
  "OfficeName": "Ammaladinne S.O",
  "Pincode": "515445",
  "OfficeType": "SO",
  "Delivery": "Delivery",
  "District": "ANANTHAPUR",
  "StateName": "Andhra Pradesh"
 },
 {
  "CircleName": "Andhra Pradesh Circle",
  "RegionName": "Kurnool Region",
  "DivisionName": "Anantapur Division",
  "OfficeName": "Anantapur Collectorate S.O",
  "Pincode": "515001",
  "OfficeType": "SO",
  "Delivery": "Non Delivery",
  "District": "ANANTHAPUR",
  "StateName": "Andhra Pradesh"
 },
 {
  "CircleName": "Andhra Pradesh Circle",
  "RegionName": "Kurnool Region",
  "DivisionName": "Anantapur Division",
  "OfficeName": "Anantapur Engg College S.O",
  "Pincode": "515002",
  "OfficeType": "SO",
  "Delivery": "Delivery",
  "District": "ANANTHAPUR",
  "StateName": "Andhra Pradesh"
 },
 {
  "CircleName": "Andhra Pradesh Circle",
  "RegionName": "Kurnool Region",
  "DivisionName": "Anantapur Division",
  "OfficeName": "Anantapur H.O",
  "Pincode": "515001",
  "OfficeType": "HO",
  "Delivery": "Delivery",
  "District": "ANANTHAPUR",
  "StateName": "Andhra Pradesh"
 },
 {
  "CircleName": "Andhra Pradesh Circle",
  "RegionName": "Kurnool Region",
  "DivisionName": "Anantapur Division",
  "OfficeName": "Ankampalli B.O",
  "Pincode": "515741",
  "OfficeType": "BO",
  "Delivery": "Delivery",
  "District": "ANANTHAPUR",
  "StateName": "Andhra Pradesh"
 },
 {
  "CircleName": "Andhra Pradesh Circle",
  "RegionName": "Kurnool Region",
  "DivisionName": "Anantapur Division",
  "OfficeName": "Anumpalli B.O",
  "Pincode": "515775",
  "OfficeType": "BO",
  "Delivery": "Delivery",
  "District": "ANANTHAPUR",
  "StateName": "Andhra Pradesh"
 },
 {
  "CircleName": "Andhra Pradesh Circle",
  "RegionName": "Kurnool Region",
  "DivisionName": "Anantapur Division",
  "OfficeName": "Appecharla B.O",
  "Pincode": "515455",
  "OfficeType": "BO",
  "Delivery": "Delivery",
  "District": "ANANTHAPUR",
  "StateName": "Andhra Pradesh"
 },
 {
  "CircleName": "Andhra Pradesh Circle",
  "RegionName": "Kurnool Region",
  "DivisionName": "Anantapur Division",
  "OfficeName": "Appilepalli B.O",
  "Pincode": "515766",
  "OfficeType": "BO",
  "Delivery": "Delivery",
  "District": "ANANTHAPUR",
  "StateName": "Andhra Pradesh"
 },
 {
  "CircleName": "Andhra Pradesh Circle",
  "RegionName": "Kurnool Region",
  "DivisionName": "Anantapur Division",
  "OfficeName": "Arakatavemula B.O",
  "Pincode": "515445",
  "OfficeType": "BO",
  "Delivery": "Delivery",
  "District": "ANANTHAPUR",
  "StateName": "Andhra Pradesh"
 },
 {
  "CircleName": "Andhra Pradesh Circle",
  "RegionName": "Kurnool Region",
  "DivisionName": "Anantapur Division",
  "OfficeName": "Araveedu B.O",
  "Pincode": "515465",
  "OfficeType": "BO",
  "Delivery": "Delivery",
  "District": "ANANTHAPUR",
  "StateName": "Andhra Pradesh"
 },
 {
  "CircleName": "Andhra Pradesh Circle",
  "RegionName": "Kurnool Region",
  "DivisionName": "Anantapur Division",
  "OfficeName": "Aravindanagar S.O",
  "Pincode": "515001",
  "OfficeType": "SO",
  "Delivery": "Non Delivery",
  "District": "ANANTHAPUR",
  "StateName": "Andhra Pradesh"
 },
 {
  "CircleName": "Andhra Pradesh Circle",
  "RegionName": "Kurnool Region",
  "DivisionName": "Anantapur Division",
  "OfficeName": "Atmakur(ATP) S.O",
  "Pincode": "515751",
  "OfficeType": "SO",
  "Delivery": "Delivery",
  "District": "ANANTHAPUR",
  "StateName": "Andhra Pradesh"
 },
 {
  "CircleName": "Andhra Pradesh Circle",
  "RegionName": "Kurnool Region",
  "DivisionName": "Anantapur Division",
  "OfficeName": "Avuladatla B.O",
  "Pincode": "515867",
  "OfficeType": "BO",
  "Delivery": "Delivery",
  "District": "ANANTHAPUR",
  "StateName": "Andhra Pradesh"
 },
 {
  "CircleName": "Andhra Pradesh Circle",
  "RegionName": "Kurnool Region",
  "DivisionName": "Anantapur Division",
  "OfficeName": "Avulanna B.O",
  "Pincode": "515741",
  "OfficeType": "BO",
  "Delivery": "Delivery",
  "District": "ANANTHAPUR",
  "StateName": "Andhra Pradesh"
 },
 {
  "CircleName": "Andhra Pradesh Circle",
  "RegionName": "Kurnool Region",
  "DivisionName": "Anantapur Division",
  "OfficeName": "Aydukallu B.O",
  "Pincode": "515763",
  "OfficeType": "BO",
  "Delivery": "Delivery",
  "District": "ANANTHAPUR",
  "StateName": "Andhra Pradesh"
 },
 {
  "CircleName": "Andhra Pradesh Circle",
  "RegionName": "Kurnool Region",
  "DivisionName": "Anantapur Division",
  "OfficeName": "Ayyagarlapalli B.O",
  "Pincode": "515767",
  "OfficeType": "BO",
  "Delivery": "Delivery",
  "District": "ANANTHAPUR",
  "StateName": "Andhra Pradesh"
 },
 {
  "CircleName": "Andhra Pradesh Circle",
  "RegionName": "Kurnool Region",
  "DivisionName": "Anantapur Division",
  "OfficeName": "Ayyavaripalli B.O",
  "Pincode": "515775",
  "OfficeType": "BO",
  "Delivery": "Delivery",
  "District": "ANANTHAPUR",
  "StateName": "Andhra Pradesh"
 },
 {
  "CircleName": "Andhra Pradesh Circle",
  "RegionName": "Kurnool Region",
  "DivisionName": "Anantapur Division",
  "OfficeName": "Ayyavaripalli B.O",
  "Pincode": "515722",
  "OfficeType": "BO",
  "Delivery": "Delivery",
  "District": "ANANTHAPUR",
  "StateName": "Andhra Pradesh"
 },
 {
  "CircleName": "Andhra Pradesh Circle",
  "RegionName": "Kurnool Region",
  "DivisionName": "Anantapur Division",
  "OfficeName": "B.N.Halli B.O",
  "Pincode": "515867",
  "OfficeType": "BO",
  "Delivery": "Delivery",
  "District": "ANANTHAPUR",
  "StateName": "Andhra Pradesh"
 },
 {
  "CircleName": "Andhra Pradesh Circle",
  "RegionName": "Kurnool Region",
  "DivisionName": "Anantapur Division",
  "OfficeName": "B.T.Project B.O",
  "Pincode": "515863",
  "OfficeType": "BO",
  "Delivery": "Delivery",
  "District": "ANANTHAPUR",
  "StateName": "Andhra Pradesh"
 },
 {
  "CircleName": "Andhra Pradesh Circle",
  "RegionName": "Kurnool Region",
  "DivisionName": "Anantapur Division",
  "OfficeName": "Bandameedapalli B.O",
  "Pincode": "515722",
  "OfficeType": "BO",
  "Delivery": "Delivery",
  "District": "ANANTHAPUR",
  "StateName": "Andhra Pradesh"
 },
 {
  "CircleName": "Andhra Pradesh Circle",
  "RegionName": "Kurnool Region",
  "DivisionName": "Anantapur Division",
  "OfficeName": "Bandlapalli B.O",
  "Pincode": "515425",
  "OfficeType": "BO",
  "Delivery": "Delivery",
  "District": "ANANTHAPUR",
  "StateName": "Andhra Pradesh"
 },
 {
  "CircleName": "Andhra Pradesh Circle",
  "RegionName": "Kurnool Region",
  "DivisionName": "Anantapur Division",
  "OfficeName": "Basapuram B.O",
  "Pincode": "515766",
  "OfficeType": "BO",
  "Delivery": "Delivery",
  "District": "ANANTHAPUR",
  "StateName": "Andhra Pradesh"
 },
 {
  "CircleName": "Andhra Pradesh Circle",
  "RegionName": "Kurnool Region",
  "DivisionName": "Anantapur Division",
  "OfficeName": "Basinepalli B.O",
  "Pincode": "515402",
  "OfficeType": "BO",
  "Delivery": "Delivery",
  "District": "ANANTHAPUR",
  "StateName": "Andhra Pradesh"
 },
 {
  "CircleName": "Andhra Pradesh Circle",
  "RegionName": "Kurnool Region",
  "DivisionName": "Anantapur Division",
  "OfficeName": "Bavarampalli B.O",
  "Pincode": "515761",
  "OfficeType": "BO",
  "Delivery": "Delivery",
  "District": "ANANTHAPUR",
  "StateName": "Andhra Pradesh"
 },
 {
  "CircleName": "Andhra Pradesh Circle",
  "RegionName": "Kurnool Region",
  "DivisionName": "Anantapur Division",
  "OfficeName": "Belguppa S.O",
  "Pincode": "515741",
  "OfficeType": "SO",
  "Delivery": "Delivery",
  "District": "ANANTHAPUR",
  "StateName": "Andhra Pradesh"
 },
 {
  "CircleName": "Andhra Pradesh Circle",
  "RegionName": "Kurnool Region",
  "DivisionName": "Anantapur Division",
  "OfficeName": "Belodu B.O",
  "Pincode": "515867",
  "OfficeType": "BO",
  "Delivery": "Delivery",
  "District": "ANANTHAPUR",
  "StateName": "Andhra Pradesh"
 },
 {
  "CircleName": "Andhra Pradesh Circle",
  "RegionName": "Kurnool Region",
  "DivisionName": "Anantapur Division",
  "OfficeName": "Bestharapalli B.O",
  "Pincode": "515766",
  "OfficeType": "BO",
  "Delivery": "Delivery",
  "District": "ANANTHAPUR",
  "StateName": "Andhra Pradesh"
 },
 {
  "CircleName": "Andhra Pradesh Circle",
  "RegionName": "Kurnool Region",
  "DivisionName": "Anantapur Division",
  "OfficeName": "Bethapalli B.O",
  "Pincode": "515402",
  "OfficeType": "BO",
  "Delivery": "Delivery",
  "District": "ANANTHAPUR",
  "StateName": "Andhra Pradesh"
 },
 {
  "CircleName": "Andhra Pradesh Circle",
  "RegionName": "Kurnool Region",
  "DivisionName": "Anantapur Division",
  "OfficeName": "Bhattuvanipalli B.O",
  "Pincode": "515787",
  "OfficeType": "BO",
  "Delivery": "Delivery",
  "District": "ANANTHAPUR",
  "StateName": "Andhra Pradesh"
 },
 {
  "CircleName": "Andhra Pradesh Circle",
  "RegionName": "Kurnool Region",
  "DivisionName": "Anantapur Division",
  "OfficeName": "Bhogasamudram B.O",
  "Pincode": "515415",
  "OfficeType": "BO",
  "Delivery": "Delivery",
  "District": "ANANTHAPUR",
  "StateName": "Andhra Pradesh"
 },
 {
  "CircleName": "Andhra Pradesh Circle",
  "RegionName": "Kurnool Region",
  "DivisionName": "Anantapur Division",
  "OfficeName": "Bhogasamudram Project S.O",
  "Pincode": "515413",
  "OfficeType": "SO",
  "Delivery": "Delivery",
  "District": "ANANTHAPUR",
  "StateName": "Andhra Pradesh"
 },
 {
  "CircleName": "Andhra Pradesh Circle",
  "RegionName": "Kurnool Region",
  "DivisionName": "Anantapur Division",
  "OfficeName": "Bhupasamudram B.O",
  "Pincode": "515867",
  "OfficeType": "BO",
  "Delivery": "Delivery",
  "District": "ANANTHAPUR",
  "StateName": "Andhra Pradesh"
 },
 {
  "CircleName": "Andhra Pradesh Circle",
  "RegionName": "Kurnool Region",
  "DivisionName": "Anantapur Division",
  "OfficeName": "Bhyrasamudram B.O",
  "Pincode": "515767",
  "OfficeType": "BO",
  "Delivery": "Delivery",
  "District": "ANANTHAPUR",
  "StateName": "Andhra Pradesh"
 },
 {
  "CircleName": "Andhra Pradesh Circle",
  "RegionName": "Kurnool Region",
  "DivisionName": "Anantapur Division",
  "OfficeName": "Bollanaguddem B.O",
  "Pincode": "515870",
  "OfficeType": "BO",
  "Delivery": "Delivery",
  "District": "ANANTHAPUR",
  "StateName": "Andhra Pradesh"
 },
 {
  "CircleName": "Andhra Pradesh Circle",
  "RegionName": "Kurnool Region",
  "DivisionName": "Anantapur Division",
  "OfficeName": "Bommaganipalli S.O",
  "Pincode": "515763",
  "OfficeType": "SO",
  "Delivery": "Delivery",
  "District": "ANANTHAPUR",
  "StateName": "Andhra Pradesh"
 },
 {
  "CircleName": "Andhra Pradesh Circle",
  "RegionName": "Kurnool Region",
  "DivisionName": "Anantapur Division",
  "OfficeName": "Bommakkapalli B.O",
  "Pincode": "515867",
  "OfficeType": "BO",
  "Delivery": "Delivery",
  "District": "ANANTHAPUR",
  "StateName": "Andhra Pradesh"
 },
 {
  "CircleName": "Andhra Pradesh Circle",
  "RegionName": "Kurnool Region",
  "DivisionName": "Anantapur Division",
  "OfficeName": "Bommanahal B.O",
  "Pincode": "515871",
  "OfficeType": "BO",
  "Delivery": "Delivery",
  "District": "ANANTHAPUR",
  "StateName": "Andhra Pradesh"
 },
 {
  "CircleName": "Andhra Pradesh Circle",
  "RegionName": "Kurnool Region",
  "DivisionName": "Anantapur Division",
  "OfficeName": "Bondaladinne B.O",
  "Pincode": "515411",
  "OfficeType": "BO",
  "Delivery": "Delivery",
  "District": "ANANTHAPUR",
  "StateName": "Andhra Pradesh"
 },
 {
  "CircleName": "Andhra Pradesh Circle",
  "RegionName": "Kurnool Region",
  "DivisionName": "Anantapur Division",
  "OfficeName": "Bondalawada B.O",
  "Pincode": "515425",
  "OfficeType": "BO",
  "Delivery": "Delivery",
  "District": "ANANTHAPUR",
  "StateName": "Andhra Pradesh"
 },
 {
  "CircleName": "Andhra Pradesh Circle",
  "RegionName": "Kurnool Region",
  "DivisionName": "Anantapur Division",
  "OfficeName": "Brahma Samudram B.O",
  "Pincode": "515767",
  "OfficeType": "BO",
  "Delivery": "Delivery",
  "District": "ANANTHAPUR",
  "StateName": "Andhra Pradesh"
 },
 {
  "CircleName": "Andhra Pradesh Circle",
  "RegionName": "Kurnool Region",
  "DivisionName": "Anantapur Division",
  "OfficeName": "Brahmanapalli B.O",
  "Pincode": "515408",
  "OfficeType": "BO",
  "Delivery": "Delivery",
  "District": "ANANTHAPUR",
  "StateName": "Andhra Pradesh"
 },
 {
  "CircleName": "Andhra Pradesh Circle",
  "RegionName": "Kurnool Region",
  "DivisionName": "Anantapur Division",
  "OfficeName": "Brahmanapalli B.O",
  "Pincode": "515401",
  "OfficeType": "BO",
  "Delivery": "Delivery",
  "District": "ANANTHAPUR",
  "StateName": "Andhra Pradesh"
 },
 {
  "CircleName": "Andhra Pradesh Circle",
  "RegionName": "Kurnool Region",
  "DivisionName": "Anantapur Division",
  "OfficeName": "Brahmasamudram B.O",
  "Pincode": "515871",
  "OfficeType": "BO",
  "Delivery": "Delivery",
  "District": "ANANTHAPUR",
  "StateName": "Andhra Pradesh"
 },
 {
  "CircleName": "Andhra Pradesh Circle",
  "RegionName": "Kurnool Region",
  "DivisionName": "Anantapur Division",
  "OfficeName": "Bramhanayaleru B.O",
  "Pincode": "515002",
  "OfficeType": "BO",
  "Delivery": "Delivery",
  "District": "ANANTHAPUR",
  "StateName": "Andhra Pradesh"
 },
 {
  "CircleName": "Andhra Pradesh Circle",
  "RegionName": "Kurnool Region",
  "DivisionName": "Anantapur Division",
  "OfficeName": "Budagavi B.O",
  "Pincode": "515812",
  "OfficeType": "BO",
  "Delivery": "Delivery",
  "District": "ANANTHAPUR",
  "StateName": "Andhra Pradesh"
 },
 {
  "CircleName": "Andhra Pradesh Circle",
  "RegionName": "Kurnool Region",
  "DivisionName": "Anantapur Division",
  "OfficeName": "Budimepalli B.O",
  "Pincode": "515763",
  "OfficeType": "BO",
  "Delivery": "Delivery",
  "District": "ANANTHAPUR",
  "StateName": "Andhra Pradesh"
 },
 {
  "CircleName": "Andhra Pradesh Circle",
  "RegionName": "Kurnool Region",
  "DivisionName": "Anantapur Division",
  "OfficeName": "Bukkacherla B.O",
  "Pincode": "515002",
  "OfficeType": "BO",
  "Delivery": "Delivery",
  "District": "ANANTHAPUR",
  "StateName": "Andhra Pradesh"
 },
 {
  "CircleName": "Andhra Pradesh Circle",
  "RegionName": "Kurnool Region",
  "DivisionName": "Anantapur Division",
  "OfficeName": "Bukkarayasamudram S.O",
  "Pincode": "515701",
  "OfficeType": "SO",
  "Delivery": "Delivery",
  "District": "ANANTHAPUR",
  "StateName": "Andhra Pradesh"
 },
 {
  "CircleName": "Andhra Pradesh Circle",
  "RegionName": "Kurnool Region",
  "DivisionName": "Anantapur Division",
  "OfficeName": "C Bandameedapalli B.O",
  "Pincode": "515701",
  "OfficeType": "BO",
  "Delivery": "Delivery",
  "District": "ANANTHAPUR",
  "StateName": "Andhra Pradesh"
 },
 {
  "CircleName": "Andhra Pradesh Circle",
  "RegionName": "Kurnool Region",
  "DivisionName": "Anantapur Division",
  "OfficeName": "Chabala B.O",
  "Pincode": "515812",
  "OfficeType": "BO",
  "Delivery": "Delivery",
  "District": "ANANTHAPUR",
  "StateName": "Andhra Pradesh"
 },
 {
  "CircleName": "Andhra Pradesh Circle",
  "RegionName": "Kurnool Region",
  "DivisionName": "Anantapur Division",
  "OfficeName": "Chadam B.O",
  "Pincode": "515865",
  "OfficeType": "BO",
  "Delivery": "Delivery",
  "District": "ANANTHAPUR",
  "StateName": "Andhra Pradesh"
 },
 {
  "CircleName": "Andhra Pradesh Circle",
  "RegionName": "Kurnool Region",
  "DivisionName": "Anantapur Division",
  "OfficeName": "Chalivemula B.O",
  "Pincode": "515414",
  "OfficeType": "BO",
  "Delivery": "Delivery",
  "District": "ANANTHAPUR",
  "StateName": "Andhra Pradesh"
 },
 {
  "CircleName": "Andhra Pradesh Circle",
  "RegionName": "Kurnool Region",
  "DivisionName": "Anantapur Division",
  "OfficeName": "Challavaripalli B.O",
  "Pincode": "515411",
  "OfficeType": "BO",
  "Delivery": "Delivery",
  "District": "ANANTHAPUR",
  "StateName": "Andhra Pradesh"
 },
 {
  "CircleName": "Andhra Pradesh Circle",
  "RegionName": "Kurnool Region",
  "DivisionName": "Anantapur Division",
  "OfficeName": "Chamaluru B.O",
  "Pincode": "515425",
  "OfficeType": "BO",
  "Delivery": "Delivery",
  "District": "ANANTHAPUR",
  "StateName": "Andhra Pradesh"
 },
 {
  "CircleName": "Andhra Pradesh Circle",
  "RegionName": "Kurnool Region",
  "DivisionName": "Anantapur Division",
  "OfficeName": "Chandana B.O",
  "Pincode": "515455",
  "OfficeType": "BO",
  "Delivery": "Delivery",
  "District": "ANANTHAPUR",
  "StateName": "Andhra Pradesh"
 },
 {
  "CircleName": "Andhra Pradesh Circle",
  "RegionName": "Kurnool Region",
  "DivisionName": "Anantapur Division",
  "OfficeName": "Chapiri B.O",
  "Pincode": "515761",
  "OfficeType": "BO",
  "Delivery": "Delivery",
  "District": "ANANTHAPUR",
  "StateName": "Andhra Pradesh"
 },
 {
  "CircleName": "Andhra Pradesh Circle",
  "RegionName": "Kurnool Region",
  "DivisionName": "Anantapur Division",
  "OfficeName": "Chayapuram B.O",
  "Pincode": "515842",
  "OfficeType": "BO",
  "Delivery": "Delivery",
  "District": "ANANTHAPUR",
  "StateName": "Andhra Pradesh"
 },
 {
  "CircleName": "Andhra Pradesh Circle",
  "RegionName": "Kurnool Region",
  "DivisionName": "Anantapur Division",
  "OfficeName": "Cheekalagurki B.O",
  "Pincode": "515812",
  "OfficeType": "BO",
  "Delivery": "Delivery",
  "District": "ANANTHAPUR",
  "StateName": "Andhra Pradesh"
 },
 {
  "CircleName": "Andhra Pradesh Circle",
  "RegionName": "Kurnool Region",
  "DivisionName": "Anantapur Division",
  "OfficeName": "Cheemalavagupalli B.O",
  "Pincode": "515408",
  "OfficeType": "BO",
  "Delivery": "Delivery",
  "District": "ANANTHAPUR",
  "StateName": "Andhra Pradesh"
 },
 {
  "CircleName": "Andhra Pradesh Circle",
  "RegionName": "Kurnool Region",
  "DivisionName": "Anantapur Division",
  "OfficeName": "Cheliminahalli B.O",
  "Pincode": "515767",
  "OfficeType": "BO",
  "Delivery": "Delivery",
  "District": "ANANTHAPUR",
  "StateName": "Andhra Pradesh"
 },
 {
  "CircleName": "Andhra Pradesh Circle",
  "RegionName": "Kurnool Region",
  "DivisionName": "Anantapur Division",
  "OfficeName": "Chennampalli B.O",
  "Pincode": "515425",
  "OfficeType": "BO",
  "Delivery": "Delivery",
  "District": "ANANTHAPUR",
  "StateName": "Andhra Pradesh"
 },
 {
  "CircleName": "Andhra Pradesh Circle",
  "RegionName": "Kurnool Region",
  "DivisionName": "Anantapur Division",
  "OfficeName": "Cherlopalli B.O",
  "Pincode": "515414",
  "OfficeType": "BO",
  "Delivery": "Delivery",
  "District": "ANANTHAPUR",
  "StateName": "Andhra Pradesh"
 },
 {
  "CircleName": "Andhra Pradesh Circle",
  "RegionName": "Kurnool Region",
  "DivisionName": "Anantapur Division",
  "OfficeName": "Cherlopalli B.O",
  "Pincode": "515766",
  "OfficeType": "BO",
  "Delivery": "Delivery",
  "District": "ANANTHAPUR",
  "StateName": "Andhra Pradesh"
 },
 {
  "CircleName": "Andhra Pradesh Circle",
  "RegionName": "Kurnool Region",
  "DivisionName": "Anantapur Division",
  "OfficeName": "Chikkepalli B.O",
  "Pincode": "515445",
  "OfficeType": "BO",
  "Delivery": "Delivery",
  "District": "ANANTHAPUR",
  "StateName": "Andhra Pradesh"
 },
 {
  "CircleName": "Andhra Pradesh Circle",
  "RegionName": "Kurnool Region",
  "DivisionName": "Anantapur Division",
  "OfficeName": "Chilamakuru B.O",
  "Pincode": "515465",
  "OfficeType": "BO",
  "Delivery": "Delivery",
  "District": "ANANTHAPUR",
  "StateName": "Andhra Pradesh"
 },
 {
  "CircleName": "Andhra Pradesh Circle",
  "RegionName": "Kurnool Region",
  "DivisionName": "Anantapur Division",
  "OfficeName": "Chinnampalli B.O",
  "Pincode": "515761",
  "OfficeType": "BO",
  "Delivery": "Delivery",
  "District": "ANANTHAPUR",
  "StateName": "Andhra Pradesh"
 },
 {
  "CircleName": "Andhra Pradesh Circle",
  "RegionName": "Kurnool Region",
  "DivisionName": "Anantapur Division",
  "OfficeName": "Chinnamusturu B.O",
  "Pincode": "515812",
  "OfficeType": "BO",
  "Delivery": "Delivery",
  "District": "ANANTHAPUR",
  "StateName": "Andhra Pradesh"
 },
 {
  "CircleName": "Andhra Pradesh Circle",
  "RegionName": "Kurnool Region",
  "DivisionName": "Anantapur Division",
  "OfficeName": "Chinnapolamada B.O",
  "Pincode": "515411",
  "OfficeType": "BO",
  "Delivery": "Delivery",
  "District": "ANANTHAPUR",
  "StateName": "Andhra Pradesh"
 },
 {
  "CircleName": "Andhra Pradesh Circle",
  "RegionName": "Kurnool Region",
  "DivisionName": "Anantapur Division",
  "OfficeName": "Chinnavadugur B.O",
  "Pincode": "515405",
  "OfficeType": "BO",
  "Delivery": "Delivery",
  "District": "ANANTHAPUR",
  "StateName": "Andhra Pradesh"
 },
 {
  "CircleName": "Andhra Pradesh Circle",
  "RegionName": "Kurnool Region",
  "DivisionName": "Anantapur Division",
  "OfficeName": "Chintakayamanda B.O",
  "Pincode": "515465",
  "OfficeType": "BO",
  "Delivery": "Delivery",
  "District": "ANANTHAPUR",
  "StateName": "Andhra Pradesh"
 },
 {
  "CircleName": "Andhra Pradesh Circle",
  "RegionName": "Kurnool Region",
  "DivisionName": "Anantapur Division",
  "OfficeName": "Chintakunta B.O",
  "Pincode": "515414",
  "OfficeType": "BO",
  "Delivery": "Delivery",
  "District": "ANANTHAPUR",
  "StateName": "Andhra Pradesh"
 },
 {
  "CircleName": "Andhra Pradesh Circle",
  "RegionName": "Kurnool Region",
  "DivisionName": "Anantapur Division",
  "OfficeName": "Chintalacheruvu B.O",
  "Pincode": "515455",
  "OfficeType": "BO",
  "Delivery": "Delivery",
  "District": "ANANTHAPUR",
  "StateName": "Andhra Pradesh"
 },
 {
  "CircleName": "Andhra Pradesh Circle",
  "RegionName": "Kurnool Region",
  "DivisionName": "Anantapur Division",
  "OfficeName": "Chintalayalapalli B.O",
  "Pincode": "515408",
  "OfficeType": "BO",
  "Delivery": "Delivery",
  "District": "ANANTHAPUR",
  "StateName": "Andhra Pradesh"
 },
 {
  "CircleName": "Andhra Pradesh Circle",
  "RegionName": "Kurnool Region",
  "DivisionName": "Anantapur Division",
  "OfficeName": "Chintarlapalli B.O",
  "Pincode": "515767",
  "OfficeType": "BO",
  "Delivery": "Delivery",
  "District": "ANANTHAPUR",
  "StateName": "Andhra Pradesh"
 },
 {
  "CircleName": "Andhra Pradesh Circle",
  "RegionName": "Kurnool Region",
  "DivisionName": "Anantapur Division",
  "OfficeName": "Chitrachedu B.O",
  "Pincode": "515611",
  "OfficeType": "BO",
  "Delivery": "Delivery",
  "District": "ANANTHAPUR",
  "StateName": "Andhra Pradesh"
 },
 {
  "CircleName": "Andhra Pradesh Circle",
  "RegionName": "Kurnool Region",
  "DivisionName": "Anantapur Division",
  "OfficeName": "Chittur B.O",
  "Pincode": "515611",
  "OfficeType": "BO",
  "Delivery": "Delivery",
  "District": "ANANTHAPUR",
  "StateName": "Andhra Pradesh"
 },
 {
  "CircleName": "Andhra Pradesh Circle",
  "RegionName": "Kurnool Region",
  "DivisionName": "Anantapur Division",
  "OfficeName": "Chiyyedu B.O",
  "Pincode": "515721",
  "OfficeType": "BO",
  "Delivery": "Delivery",
  "District": "ANANTHAPUR",
  "StateName": "Andhra Pradesh"
 },
 {
  "CircleName": "Andhra Pradesh Circle",
  "RegionName": "Kurnool Region",
  "DivisionName": "Anantapur Division",
  "OfficeName": "Cholasamudram B.O",
  "Pincode": "515711",
  "OfficeType": "BO",
  "Delivery": "Delivery",
  "District": "ANANTHAPUR",
  "StateName": "Andhra Pradesh"
 },
 {
  "CircleName": "Andhra Pradesh Circle",
  "RegionName": "Kurnool Region",
  "DivisionName": "Anantapur Division",
  "OfficeName": "Chukkalur S.O",
  "Pincode": "515415",
  "OfficeType": "SO",
  "Delivery": "Delivery",
  "District": "ANANTHAPUR",
  "StateName": "Andhra Pradesh"
 },
 {
  "CircleName": "Andhra Pradesh Circle",
  "RegionName": "Kurnool Region",
  "DivisionName": "Anantapur Division",
  "OfficeName": "Danduvaripalli B.O",
  "Pincode": "515701",
  "OfficeType": "BO",
  "Delivery": "Delivery",
  "District": "ANANTHAPUR",
  "StateName": "Andhra Pradesh"
 },
 {
  "CircleName": "Andhra Pradesh Circle",
  "RegionName": "Kurnool Region",
  "DivisionName": "Anantapur Division",
  "OfficeName": "Darga Kondaopuram B.O",
  "Pincode": "515865",
  "OfficeType": "BO",
  "Delivery": "Delivery",
  "District": "ANANTHAPUR",
  "StateName": "Andhra Pradesh"
 },
 {
  "CircleName": "Andhra Pradesh Circle",
  "RegionName": "Kurnool Region",
  "DivisionName": "Anantapur Division",
  "OfficeName": "Dasampalli B.O",
  "Pincode": "515765",
  "OfficeType": "BO",
  "Delivery": "Delivery",
  "District": "ANANTHAPUR",
  "StateName": "Andhra Pradesh"
 },
 {
  "CircleName": "Andhra Pradesh Circle",
  "RegionName": "Kurnool Region",
  "DivisionName": "Anantapur Division",
  "OfficeName": "Devagiri B.O",
  "Pincode": "515871",
  "OfficeType": "BO",
  "Delivery": "Delivery",
  "District": "ANANTHAPUR",
  "StateName": "Andhra Pradesh"
 },
 {
  "CircleName": "Andhra Pradesh Circle",
  "RegionName": "Kurnool Region",
  "DivisionName": "Anantapur Division",
  "OfficeName": "Devarapalli B.O",
  "Pincode": "515775",
  "OfficeType": "BO",
  "Delivery": "Delivery",
  "District": "ANANTHAPUR",
  "StateName": "Andhra Pradesh"
 },
 {
  "CircleName": "Andhra Pradesh Circle",
  "RegionName": "Kurnool Region",
  "DivisionName": "Anantapur Division",
  "OfficeName": "Dharmapuri B.O",
  "Pincode": "515812",
  "OfficeType": "BO",
  "Delivery": "Delivery",
  "District": "ANANTHAPUR",
  "StateName": "Andhra Pradesh"
 },
 {
  "CircleName": "Andhra Pradesh Circle",
  "RegionName": "Kurnool Region",
  "DivisionName": "Anantapur Division",
  "OfficeName": "Diguvapalli B.O",
  "Pincode": "515414",
  "OfficeType": "BO",
  "Delivery": "Delivery",
  "District": "ANANTHAPUR",
  "StateName": "Andhra Pradesh"
 },
 {
  "CircleName": "Andhra Pradesh Circle",
  "RegionName": "Kurnool Region",
  "DivisionName": "Anantapur Division",
  "OfficeName": "Dimmagudi B.O",
  "Pincode": "515405",
  "OfficeType": "BO",
  "Delivery": "Delivery",
  "District": "ANANTHAPUR",
  "StateName": "Andhra Pradesh"
 },
 {
  "CircleName": "Andhra Pradesh Circle",
  "RegionName": "Kurnool Region",
  "DivisionName": "Anantapur Division",
  "OfficeName": "Dodagatta B.O",
  "Pincode": "515761",
  "OfficeType": "BO",
  "Delivery": "Delivery",
  "District": "ANANTHAPUR",
  "StateName": "Andhra Pradesh"
 },
 {
  "CircleName": "Andhra Pradesh Circle",
  "RegionName": "Kurnool Region",
  "DivisionName": "Anantapur Division",
  "OfficeName": "Donekal B.O",
  "Pincode": "515842",
  "OfficeType": "BO",
  "Delivery": "Delivery",
  "District": "ANANTHAPUR",
  "StateName": "Andhra Pradesh"
 },
 {
  "CircleName": "Andhra Pradesh Circle",
  "RegionName": "Kurnool Region",
  "DivisionName": "Anantapur Division",
  "OfficeName": "Dosaludiki B.O",
  "Pincode": "515803",
  "OfficeType": "BO",
  "Delivery": "Delivery",
  "District": "ANANTHAPUR",
  "StateName": "Andhra Pradesh"
 },
 {
  "CircleName": "Andhra Pradesh Circle",
  "RegionName": "Kurnool Region",
  "DivisionName": "Anantapur Division",
  "OfficeName": "Duddekunta B.O",
  "Pincode": "515741",
  "OfficeType": "BO",
  "Delivery": "Delivery",
  "District": "ANANTHAPUR",
  "StateName": "Andhra Pradesh"
 },
 {
  "CircleName": "Andhra Pradesh Circle",
  "RegionName": "Kurnool Region",
  "DivisionName": "Anantapur Division",
  "OfficeName": "Duggumarri B.O",
  "Pincode": "515425",
  "OfficeType": "BO",
  "Delivery": "Delivery",
  "District": "ANANTHAPUR",
  "StateName": "Andhra Pradesh"
 },
 {
  "CircleName": "Andhra Pradesh Circle",
  "RegionName": "Kurnool Region",
  "DivisionName": "Anantapur Division",
  "OfficeName": "Durdakunta B.O",
  "Pincode": "515787",
  "OfficeType": "BO",
  "Delivery": "Delivery",
  "District": "ANANTHAPUR",
  "StateName": "Andhra Pradesh"
 }
]